SL-16 R/B               
1 25400U 98043G   26040.45569302  .00000102  00000+0  61699-4 0  9998
2 25400  98.8207 353.6277 0010917  95.7348 264.5077 14.26043022434965
SL-16 R/B               
1 25407U 98045B   26039.89612837 -.00000001  00000+0  23527-4 0  9992
2 25407  71.0082 242.1259 0005375  61.7610 298.4056 14.16185171423024
ISS (ZARYA)             
1 25544U 98067A   26040.43894132  .00009896  00000+0  19052-3 0  9997
2 25544  51.6310 212.0104 0011091  80.0760 280.1480 15.48502829551953
CZ-4B R/B               
1 25732U 99025C   26040.08714822  .00000055  00000+0  47114-4 0  9998
2 25732  98.6684  85.0386 0038073  67.9698 321.8743 14.18259473384117
OKEAN-O                 
1 25860U 99039A   26040.12709676  .00000781  00000+0  10940-3 0  9993
2 25860  97.9507 100.2999 0001853  85.9893 274.1531 14.80288009430166
SL-16 R/B               
1 25861U 99039B   26040.13396139  .00000634  00000+0  87252-4 0  9999
2 25861  98.0029  99.2638 0014596 355.5528   4.5552 14.81690371432636
DELTA 2 R/B             
1 25876U 99041E   26040.47828125  .00002302  00000+0  40772-3 0  9999
2 25876  51.7653  53.9389 0502288 265.0872  89.2559 14.11724151359045
HELIOS 1B               
1 25977U 99064A   26040.32941478  .00002409  00000+0  27163-3 0  9994
2 25977  98.1721 301.7358 0002094 115.4768 244.6664 14.87580114681044
TERRA                   
1 25994U 99068A   26040.42921360  .00000530  00000+0  11717-3 0  9997
2 25994  97.9655  94.9348 0000929 267.1002 149.8906 14.60983690390956
SL-16 R/B               
1 26070U 00006B   26040.39859604 -.00000124  00000+0 -38467-4 0  9997
2 26070  71.0031 157.3223 0018354 230.1482 129.8027 14.15820610344551
TITAN 4B R/B            
1 26474U 00047B   26040.46815340  .00003866  00000+0  24631-3 0  9998
2 26474  67.9891 119.8543 0037053  70.0303 290.4830 15.09326548388656
ENVISAT                 
1 27386U 02009A   26040.46095762  .00000176  00000+0  70791-4 0  9999
2 27386  98.3680 354.7392 0001311  90.2803  18.3955 14.39026292255116
