CCSDS_OMM_VERS = 2.0
CREATION_DATE  = 
ORIGINATOR     = 

OBJECT_NAME    = SL-16 R/B
OBJECT_ID      = 1998-043G
CENTER_NAME    = EARTH
REF_FRAME      = TEME
TIME_SYSTEM    = UTC
MEAN_ELEMENT_THEORY = SGP/SGP4

EPOCH          = 2026-02-09T10:56:11.876928
MEAN_MOTION    = 14.26043022
ECCENTRICITY   = .0010917
INCLINATION    = 98.8207
RA_OF_ASC_NODE = 353.6277
ARG_OF_PERICENTER = 95.7348
MEAN_ANOMALY   = 264.5077

EPHEMERIS_TYPE = 0
CLASSIFICATION_TYPE = U
NORAD_CAT_ID   = 25400
ELEMENT_SET_NO = 999
REV_AT_EPOCH   = 43496
BSTAR          = .61699E-4
MEAN_MOTION_DOT = .102E-5
MEAN_MOTION_DDOT = 0

CCSDS_OMM_VERS = 2.0
CREATION_DATE  = 
ORIGINATOR     = 

OBJECT_NAME    = SL-16 R/B
OBJECT_ID      = 1998-045B
CENTER_NAME    = EARTH
REF_FRAME      = TEME
TIME_SYSTEM    = UTC
MEAN_ELEMENT_THEORY = SGP/SGP4

EPOCH          = 2026-02-08T21:30:25.491168
MEAN_MOTION    = 14.16185171
ECCENTRICITY   = .0005375
INCLINATION    = 71.0082
RA_OF_ASC_NODE = 242.1259
ARG_OF_PERICENTER = 61.7610
MEAN_ANOMALY   = 298.4056

EPHEMERIS_TYPE = 0
CLASSIFICATION_TYPE = U
NORAD_CAT_ID   = 25407
ELEMENT_SET_NO = 999
REV_AT_EPOCH   = 42302
BSTAR          = .23527417E-4
MEAN_MOTION_DOT = -.1E-7
MEAN_MOTION_DDOT = 0

CCSDS_OMM_VERS = 2.0
CREATION_DATE  = 
ORIGINATOR     = 

OBJECT_NAME    = ISS (ZARYA)
OBJECT_ID      = 1998-067A
CENTER_NAME    = EARTH
REF_FRAME      = TEME
TIME_SYSTEM    = UTC
MEAN_ELEMENT_THEORY = SGP/SGP4

EPOCH          = 2026-02-09T10:32:04.530048
MEAN_MOTION    = 15.48502829
ECCENTRICITY   = .0011091
INCLINATION    = 51.6310
RA_OF_ASC_NODE = 212.0104
ARG_OF_PERICENTER = 80.0760
MEAN_ANOMALY   = 280.1480

EPHEMERIS_TYPE = 0
CLASSIFICATION_TYPE = U
NORAD_CAT_ID   = 25544
ELEMENT_SET_NO = 999
REV_AT_EPOCH   = 55195
BSTAR          = .19052E-3
MEAN_MOTION_DOT = .9896E-4
MEAN_MOTION_DDOT = 0

CCSDS_OMM_VERS = 2.0
CREATION_DATE  = 
ORIGINATOR     = 

OBJECT_NAME    = CZ-4B R/B
OBJECT_ID      = 1999-025C
CENTER_NAME    = EARTH
REF_FRAME      = TEME
TIME_SYSTEM    = UTC
MEAN_ELEMENT_THEORY = SGP/SGP4

EPOCH          = 2026-02-09T02:05:29.606208
MEAN_MOTION    = 14.18259473
ECCENTRICITY   = .00380737
INCLINATION    = 98.6684
RA_OF_ASC_NODE = 85.0386
ARG_OF_PERICENTER = 67.9698
MEAN_ANOMALY   = 321.8743

EPHEMERIS_TYPE = 0
CLASSIFICATION_TYPE = U
NORAD_CAT_ID   = 25732
ELEMENT_SET_NO = 999
REV_AT_EPOCH   = 38411
BSTAR          = .47113599E-4
MEAN_MOTION_DOT = .55E-6
MEAN_MOTION_DDOT = 0

CCSDS_OMM_VERS = 2.0
CREATION_DATE  = 
ORIGINATOR     = 

OBJECT_NAME    = OKEAN-O
OBJECT_ID      = 1999-039A
CENTER_NAME    = EARTH
REF_FRAME      = TEME
TIME_SYSTEM    = UTC
MEAN_ELEMENT_THEORY = SGP/SGP4

EPOCH          = 2026-02-09T03:03:01.160064
MEAN_MOTION    = 14.80288009
ECCENTRICITY   = .00018536
INCLINATION    = 97.9507
RA_OF_ASC_NODE = 100.2999
ARG_OF_PERICENTER = 85.9893
MEAN_ANOMALY   = 274.1531

EPHEMERIS_TYPE = 0
CLASSIFICATION_TYPE = U
NORAD_CAT_ID   = 25860
ELEMENT_SET_NO = 999
REV_AT_EPOCH   = 43016
BSTAR          = .10939554E-3
MEAN_MOTION_DOT = .781E-5
MEAN_MOTION_DDOT = 0

CCSDS_OMM_VERS = 2.0
CREATION_DATE  = 
ORIGINATOR     = 

OBJECT_NAME    = SL-16 R/B
OBJECT_ID      = 1999-039B
CENTER_NAME    = EARTH
REF_FRAME      = TEME
TIME_SYSTEM    = UTC
MEAN_ELEMENT_THEORY = SGP/SGP4

EPOCH          = 2026-02-09T03:12:54.264096
MEAN_MOTION    = 14.81690371
ECCENTRICITY   = .0014596
INCLINATION    = 98.0029
RA_OF_ASC_NODE = 99.2638
ARG_OF_PERICENTER = 355.5528
MEAN_ANOMALY   = 4.5552

EPHEMERIS_TYPE = 0
CLASSIFICATION_TYPE = U
NORAD_CAT_ID   = 25861
ELEMENT_SET_NO = 999
REV_AT_EPOCH   = 43263
BSTAR          = .87252165E-4
MEAN_MOTION_DOT = .634E-5
MEAN_MOTION_DDOT = 0

CCSDS_OMM_VERS = 2.0
CREATION_DATE  = 
ORIGINATOR     = 

OBJECT_NAME    = DELTA 2 R/B
OBJECT_ID      = 1999-041E
CENTER_NAME    = EARTH
REF_FRAME      = TEME
TIME_SYSTEM    = UTC
MEAN_ELEMENT_THEORY = SGP/SGP4

EPOCH          = 2026-02-09T11:28:43.500000
MEAN_MOTION    = 14.11724151
ECCENTRICITY   = .0502288
INCLINATION    = 51.7653
RA_OF_ASC_NODE = 53.9389
ARG_OF_PERICENTER = 265.0872
MEAN_ANOMALY   = 89.2559

EPHEMERIS_TYPE = 0
CLASSIFICATION_TYPE = U
NORAD_CAT_ID   = 25876
ELEMENT_SET_NO = 999
REV_AT_EPOCH   = 35904
BSTAR          = .40772E-3
MEAN_MOTION_DOT = .2302E-4
MEAN_MOTION_DDOT = 0

CCSDS_OMM_VERS = 2.0
CREATION_DATE  = 
ORIGINATOR     = 

OBJECT_NAME    = HELIOS 1B
OBJECT_ID      = 1999-064A
CENTER_NAME    = EARTH
REF_FRAME      = TEME
TIME_SYSTEM    = UTC
MEAN_ELEMENT_THEORY = SGP/SGP4

EPOCH          = 2026-02-09T07:54:21.436992
MEAN_MOTION    = 14.87580114
ECCENTRICITY   = .0002094
INCLINATION    = 98.1721
RA_OF_ASC_NODE = 301.7358
ARG_OF_PERICENTER = 115.4768
MEAN_ANOMALY   = 244.6664

EPHEMERIS_TYPE = 0
CLASSIFICATION_TYPE = U
NORAD_CAT_ID   = 25977
ELEMENT_SET_NO = 999
REV_AT_EPOCH   = 68104
BSTAR          = .27163E-3
MEAN_MOTION_DOT = .2409E-4
MEAN_MOTION_DDOT = 0

CCSDS_OMM_VERS = 2.0
CREATION_DATE  = 
ORIGINATOR     = 

OBJECT_NAME    = TERRA
OBJECT_ID      = 1999-068A
CENTER_NAME    = EARTH
REF_FRAME      = TEME
TIME_SYSTEM    = UTC
MEAN_ELEMENT_THEORY = SGP/SGP4

EPOCH          = 2026-02-09T10:18:04.055040
MEAN_MOTION    = 14.60983690
ECCENTRICITY   = .0000929
INCLINATION    = 97.9655
RA_OF_ASC_NODE = 94.9348
ARG_OF_PERICENTER = 267.1002
MEAN_ANOMALY   = 149.8906

EPHEMERIS_TYPE = 0
CLASSIFICATION_TYPE = U
NORAD_CAT_ID   = 25994
ELEMENT_SET_NO = 999
REV_AT_EPOCH   = 39095
BSTAR          = .11717E-3
MEAN_MOTION_DOT = .53E-5
MEAN_MOTION_DDOT = 0

CCSDS_OMM_VERS = 2.0
CREATION_DATE  = 
ORIGINATOR     = 

OBJECT_NAME    = SL-16 R/B
OBJECT_ID      = 2000-006B
CENTER_NAME    = EARTH
REF_FRAME      = TEME
TIME_SYSTEM    = UTC
MEAN_ELEMENT_THEORY = SGP/SGP4

EPOCH          = 2026-02-09T09:33:58.697856
MEAN_MOTION    = 14.15820610
ECCENTRICITY   = .0018354
INCLINATION    = 71.0031
RA_OF_ASC_NODE = 157.3223
ARG_OF_PERICENTER = 230.1482
MEAN_ANOMALY   = 129.8027

EPHEMERIS_TYPE = 0
CLASSIFICATION_TYPE = U
NORAD_CAT_ID   = 26070
ELEMENT_SET_NO = 999
REV_AT_EPOCH   = 34455
BSTAR          = -.38467E-4
MEAN_MOTION_DOT = -.124E-5
MEAN_MOTION_DDOT = 0

CCSDS_OMM_VERS = 2.0
CREATION_DATE  = 
ORIGINATOR     = 

OBJECT_NAME    = TITAN 4B R/B
OBJECT_ID      = 2000-047B
CENTER_NAME    = EARTH
REF_FRAME      = TEME
TIME_SYSTEM    = UTC
MEAN_ELEMENT_THEORY = SGP/SGP4

EPOCH          = 2026-02-09T11:14:08.453760
MEAN_MOTION    = 15.09326548
ECCENTRICITY   = .0037053
INCLINATION    = 67.9891
RA_OF_ASC_NODE = 119.8543
ARG_OF_PERICENTER = 70.0303
MEAN_ANOMALY   = 290.4830

EPHEMERIS_TYPE = 0
CLASSIFICATION_TYPE = U
NORAD_CAT_ID   = 26474
ELEMENT_SET_NO = 999
REV_AT_EPOCH   = 38865
BSTAR          = .24631E-3
MEAN_MOTION_DOT = .3866E-4
MEAN_MOTION_DDOT = 0

CCSDS_OMM_VERS = 2.0
CREATION_DATE  = 
ORIGINATOR     = 

OBJECT_NAME    = ENVISAT
OBJECT_ID      = 2002-009A
CENTER_NAME    = EARTH
REF_FRAME      = TEME
TIME_SYSTEM    = UTC
MEAN_ELEMENT_THEORY = SGP/SGP4

EPOCH          = 2026-02-09T11:03:46.738368
MEAN_MOTION    = 14.39026292
ECCENTRICITY   = .0001311
INCLINATION    = 98.3680
RA_OF_ASC_NODE = 354.7392
ARG_OF_PERICENTER = 90.2803
MEAN_ANOMALY   = 18.3955

EPHEMERIS_TYPE = 0
CLASSIFICATION_TYPE = U
NORAD_CAT_ID   = 27386
ELEMENT_SET_NO = 999
REV_AT_EPOCH   = 25511
BSTAR          = .70791E-4
MEAN_MOTION_DOT = .176E-5
MEAN_MOTION_DDOT = 0

